[{"OBJECT_NAME":"HULIANWANG DIGUI-108","OBJECT_ID":"2025-285D","EPOCH":"2026-03-09T18:19:57.845280","MEAN_MOTION":13.29331251,"ECCENTRICITY":1.077e-5,"INCLINATION":50.0042,"RA_OF_ASC_NODE":142.5767,"ARG_OF_PERICENTER":319.2563,"MEAN_ANOMALY":40.8301,"EPHEMERIS_TYPE":0,"CLASSIFICATION_TYPE":"U","NORAD_CAT_ID":66918,"ELEMENT_SET_NO":999,"REV_AT_EPOCH":1283,"BSTAR":0.00011054904,"MEAN_MOTION_DOT":-7.3e-7,"MEAN_MOTION_DDOT":0},{"OBJECT_NAME":"BLACK ARROW R\/B","OBJECT_ID":"1971-093B","EPOCH":"2026-03-09T22:36:05.554944","MEAN_MOTION":14.00366378,"ECCENTRICITY":0.05041089,"INCLINATION":82.0373,"RA_OF_ASC_NODE":52.5877,"ARG_OF_PERICENTER":268.267,"MEAN_ANOMALY":86.0721,"EPHEMERIS_TYPE":0,"CLASSIFICATION_TYPE":"U","NORAD_CAT_ID":5581,"ELEMENT_SET_NO":999,"REV_AT_EPOCH":73271,"BSTAR":0.00039679437,"MEAN_MOTION_DOT":1.821e-5,"MEAN_MOTION_DDOT":0}]
